[{"OBJECT_NAME":"STARLINK-4053","OBJECT_ID":"2022-101K","EPOCH":"2026-03-09T08:55:39.237888","MEAN_MOTION":15.08840743,"ECCENTRICITY":0.00015904,"INCLINATION":53.2192,"RA_OF_ASC_NODE":65.4667,"ARG_OF_PERICENTER":84.1524,"MEAN_ANOMALY":275.9649,"EPHEMERIS_TYPE":0,"CLASSIFICATION_TYPE":"U","NORAD_CAT_ID":53536,"ELEMENT_SET_NO":999,"REV_AT_EPOCH":19625,"BSTAR":-4.4205589e-5,"MEAN_MOTION_DOT":-9.92e-6,"MEAN_MOTION_DDOT":0},{"OBJECT_NAME":"OBJECT B","OBJECT_ID":"2023-069B","EPOCH":"2026-03-09T13:07:46.108416","MEAN_MOTION":15.09579619,"ECCENTRICITY":0.00116524,"INCLINATION":41.0081,"RA_OF_ASC_NODE":274.4606,"ARG_OF_PERICENTER":279.7432,"MEAN_ANOMALY":80.2064,"EPHEMERIS_TYPE":0,"CLASSIFICATION_TYPE":"U","NORAD_CAT_ID":56732,"ELEMENT_SET_NO":999,"REV_AT_EPOCH":15516,"BSTAR":0.00042419683,"MEAN_MOTION_DOT":6.772e-5,"MEAN_MOTION_DDOT":0}]
