STARLINK-4053           
1 53536U 22101K   26068.37198192 -.00000992  00000+0 -44206-4 0  9991
2 53536  53.2192  65.4667 0001590  84.1524 275.9649 15.08840743196254
2023-069B               
1 56732U 23069B   26068.54706144  .00006772  00000+0  42420-3 0  9992
2 56732  41.0081 274.4606 0011652 279.7432  80.2064 15.09579619155167
